CCSDS_OMM_VERS = 2.0
CREATION_DATE  = 
ORIGINATOR     = 

OBJECT_NAME    = SOYUZ-MS 28
OBJECT_ID      = 2025-275A
CENTER_NAME    = EARTH
REF_FRAME      = TEME
TIME_SYSTEM    = UTC
MEAN_ELEMENT_THEORY = SGP/SGP4

EPOCH          = 2025-12-13T02:54:59.414400
MEAN_MOTION    = 15.49559837
ECCENTRICITY   = .00032382
INCLINATION    = 51.6303
RA_OF_ASC_NODE = 140.5889
ARG_OF_PERICENTER = 241.9684
MEAN_ANOMALY   = 118.0978

EPHEMERIS_TYPE = 0
CLASSIFICATION_TYPE = U
NORAD_CAT_ID   = 66664
ELEMENT_SET_NO = 999
REV_AT_EPOCH   = 128
BSTAR          = .29450217E-3
MEAN_MOTION_DOT = .1613E-3
MEAN_MOTION_DDOT = 0

CCSDS_OMM_VERS = 2.0
CREATION_DATE  = 
ORIGINATOR     = 

OBJECT_NAME    = 1998-067XS
OBJECT_ID      = 1998-067XS
CENTER_NAME    = EARTH
REF_FRAME      = TEME
TIME_SYSTEM    = UTC
MEAN_ELEMENT_THEORY = SGP/SGP4

EPOCH          = 2025-12-12T17:30:10.785600
MEAN_MOTION    = 15.50562979
ECCENTRICITY   = .00036025
INCLINATION    = 51.6293
RA_OF_ASC_NODE = 142.4703
ARG_OF_PERICENTER = 202.1444
MEAN_ANOMALY   = 157.9390

EPHEMERIS_TYPE = 0
CLASSIFICATION_TYPE = U
NORAD_CAT_ID   = 66906
ELEMENT_SET_NO = 999
REV_AT_EPOCH   = 161
BSTAR          = .63717141E-3
MEAN_MOTION_DOT = .36816E-3
MEAN_MOTION_DDOT = 0

CCSDS_OMM_VERS = 2.0
CREATION_DATE  = 
ORIGINATOR     = 

OBJECT_NAME    = 1998-067XT
OBJECT_ID      = 1998-067XT
CENTER_NAME    = EARTH
REF_FRAME      = TEME
TIME_SYSTEM    = UTC
MEAN_ELEMENT_THEORY = SGP/SGP4

EPOCH          = 2025-12-12T17:26:16.026432
MEAN_MOTION    = 15.51436780
ECCENTRICITY   = .00044769
INCLINATION    = 51.6298
RA_OF_ASC_NODE = 142.4529
ARG_OF_PERICENTER = 226.7870
MEAN_ANOMALY   = 133.2746

EPHEMERIS_TYPE = 0
CLASSIFICATION_TYPE = U
NORAD_CAT_ID   = 66907
ELEMENT_SET_NO = 999
REV_AT_EPOCH   = 161
BSTAR          = .13978666E-2
MEAN_MOTION_DOT = .8442E-3
MEAN_MOTION_DDOT = 0

CCSDS_OMM_VERS = 2.0
CREATION_DATE  = 
ORIGINATOR     = 

OBJECT_NAME    = 1998-067XU
OBJECT_ID      = 1998-067XU
CENTER_NAME    = EARTH
REF_FRAME      = TEME
TIME_SYSTEM    = UTC
MEAN_ELEMENT_THEORY = SGP/SGP4

EPOCH          = 2025-12-13T07:20:31.203744
MEAN_MOTION    = 15.51634533
ECCENTRICITY   = .00044658
INCLINATION    = 51.6298
RA_OF_ASC_NODE = 139.5715
ARG_OF_PERICENTER = 229.4580
MEAN_ANOMALY   = 130.6021

EPHEMERIS_TYPE = 0
CLASSIFICATION_TYPE = U
NORAD_CAT_ID   = 66908
ELEMENT_SET_NO = 999
REV_AT_EPOCH   = 170
BSTAR          = .17363682E-2
MEAN_MOTION_DOT = .106014E-2
MEAN_MOTION_DDOT = 0

CCSDS_OMM_VERS = 2.0
CREATION_DATE  = 
ORIGINATOR     = 

OBJECT_NAME    = SILVERSAT
OBJECT_ID      = 1998-067XV
CENTER_NAME    = EARTH
REF_FRAME      = TEME
TIME_SYSTEM    = UTC
MEAN_ELEMENT_THEORY = SGP/SGP4

EPOCH          = 2025-12-12T22:03:29.727648
MEAN_MOTION    = 15.51661311
ECCENTRICITY   = .00044499
INCLINATION    = 51.6297
RA_OF_ASC_NODE = 141.4878
ARG_OF_PERICENTER = 228.6613
MEAN_ANOMALY   = 131.3994

EPHEMERIS_TYPE = 0
CLASSIFICATION_TYPE = U
NORAD_CAT_ID   = 66909
ELEMENT_SET_NO = 999
REV_AT_EPOCH   = 164
BSTAR          = .15570359E-2
MEAN_MOTION_DOT = .94974E-3
MEAN_MOTION_DDOT = 0

CCSDS_OMM_VERS = 2.0
CREATION_DATE  = 
ORIGINATOR     = 

OBJECT_NAME    = 1998-067XW
OBJECT_ID      = 1998-067XW
CENTER_NAME    = EARTH
REF_FRAME      = TEME
TIME_SYSTEM    = UTC
MEAN_ELEMENT_THEORY = SGP/SGP4

EPOCH          = 2025-12-12T20:28:35.609952
MEAN_MOTION    = 15.51770354
ECCENTRICITY   = .00052525
INCLINATION    = 51.6298
RA_OF_ASC_NODE = 141.7982
ARG_OF_PERICENTER = 209.4111
MEAN_ANOMALY   = 150.6584

EPHEMERIS_TYPE = 0
CLASSIFICATION_TYPE = U
NORAD_CAT_ID   = 66910
ELEMENT_SET_NO = 999
REV_AT_EPOCH   = 163
BSTAR          = .1333891E-2
MEAN_MOTION_DOT = .81487E-3
MEAN_MOTION_DDOT = 0

CCSDS_OMM_VERS = 2.0
CREATION_DATE  = 
ORIGINATOR     = 

OBJECT_NAME    = 1998-067XX
OBJECT_ID      = 1998-067XX
CENTER_NAME    = EARTH
REF_FRAME      = TEME
TIME_SYSTEM    = UTC
MEAN_ELEMENT_THEORY = SGP/SGP4

EPOCH          = 2025-12-12T17:22:05.659968
MEAN_MOTION    = 15.51996459
ECCENTRICITY   = .0004979
INCLINATION    = 51.6296
RA_OF_ASC_NODE = 142.4333
ARG_OF_PERICENTER = 210.3883
MEAN_ANOMALY   = 149.6819

EPHEMERIS_TYPE = 0
CLASSIFICATION_TYPE = U
NORAD_CAT_ID   = 66911
ELEMENT_SET_NO = 999
REV_AT_EPOCH   = 160
BSTAR          = .15692424E-2
MEAN_MOTION_DOT = .96916E-3
MEAN_MOTION_DDOT = 0

CCSDS_OMM_VERS = 2.0
CREATION_DATE  = 
ORIGINATOR     = 

OBJECT_NAME    = 1998-067XY
OBJECT_ID      = 1998-067XY
CENTER_NAME    = EARTH
REF_FRAME      = TEME
TIME_SYSTEM    = UTC
MEAN_ELEMENT_THEORY = SGP/SGP4

EPOCH          = 2025-12-12T17:27:38.564352
MEAN_MOTION    = 15.51126460
ECCENTRICITY   = .00045766
INCLINATION    = 51.6300
RA_OF_ASC_NODE = 142.4585
ARG_OF_PERICENTER = 223.4610
MEAN_ANOMALY   = 136.6019

EPHEMERIS_TYPE = 0
CLASSIFICATION_TYPE = U
NORAD_CAT_ID   = 66912
ELEMENT_SET_NO = 999
REV_AT_EPOCH   = 160
BSTAR          = .11286003E-2
MEAN_MOTION_DOT = .67169E-3
MEAN_MOTION_DDOT = 0

